OBJECT_NAME,OBJECT_ID,EPOCH,MEAN_MOTION,ECCENTRICITY,INCLINATION,RA_OF_ASC_NODE,ARG_OF_PERICENTER,MEAN_ANOMALY,EPHEMERIS_TYPE,CLASSIFICATION_TYPE,NORAD_CAT_ID,ELEMENT_SET_NO,REV_AT_EPOCH,BSTAR,MEAN_MOTION_DOT,MEAN_MOTION_DDOT
STARLINK-37506,2026-117Z,2026-06-03T22:00:01.999584,16.09773061,.00004832,53.1579,310.3818,58.4143,238.7615,0,U,69261,999,203,-.18077373E-2,-.1716077E-1,.10024477E-2
STARLINK-37503,2026-117AA,2026-06-03T22:00:01.999584,16.10079311,.0000396,53.1581,310.3734,54.5164,246.4629,0,U,69262,999,203,-.17454565E-2,-.1690908E-1,.9789439E-3
STARLINK-37502,2026-117AB,2026-06-03T22:00:01.999584,16.10474094,.00003747,53.1580,310.3666,64.4841,239.6660,0,U,69263,999,203,-.16133163E-2,-.1605247E-1,.89273645E-3
STARLINK-37486,2026-117AC,2026-06-03T22:00:01.999584,16.10887018,.00003374,53.1579,310.3578,63.9466,244.5899,0,U,69264,999,203,-.15405764E-2,-.1575861E-1,.867217E-3
STARLINK-37435,2026-117AD,2026-06-03T22:00:01.999584,16.11185624,.00002775,53.1579,310.3489,41.2084,271.1773,0,U,69265,999,203,-.14891044E-2,-.1554162E-1,.84846027E-3
STARLINK-37464,2026-117AE,2026-06-03T22:00:01.999584,16.11565983,.00003463,53.1578,310.3407,52.4471,263.9426,0,U,69266,999,203,-.14174005E-2,-.1518059E-1,.81629177E-3
KUIPER-00282,2026-118A,2026-06-03T14:00:16.999776,15.35324343,.00118097,51.8582,119.1170,135.3199,57.2014,0,U,69267,999,130,-.51546782E-3,-.18343E-3,0
KUIPER-00383,2026-118B,2026-06-03T14:00:16.999776,15.35762585,.00111091,51.8585,119.1043,132.8469,65.8049,0,U,69268,999,132,-.48945679E-3,-.17676E-3,0
KUIPER-00527,2026-118C,2026-06-03T14:00:16.999776,15.36101620,.00099173,51.8611,119.0903,127.5834,77.7691,0,U,69269,999,130,.83258995E-4,.2587E-4,0
KUIPER-00562,2026-118D,2026-06-03T14:00:16.999776,15.38311100,.00019772,51.8711,119.0019,71.6560,169.0492,0,U,69270,999,185,-.38589985E-3,-.15169E-3,0
KUIPER-00570,2026-118E,2026-06-03T14:00:16.999776,15.35783557,.00108256,51.8571,119.1018,134.2093,65.8961,0,U,69271,999,144,-.45228513E-3,-.16375E-3,0
KUIPER-00572,2026-118F,2026-06-03T14:00:16.999776,15.36683629,.0007319,51.8666,119.0695,121.6537,92.2721,0,U,69272,999,130,-.40903428E-3,-.15259E-3,0
KUIPER-00581,2026-118G,2026-06-03T14:00:16.999776,15.36364462,.00089103,51.8646,119.0818,126.9297,81.7526,0,U,69273,999,198,-.41078668E-3,-.15176E-3,0
KUIPER-00584,2026-118H,2026-06-03T14:00:16.999776,15.35332186,.00116871,51.8599,119.1093,136.0029,60.1593,0,U,69274,999,130,-.47282496E-3,-.16864E-3,0
KUIPER-00587,2026-118J,2026-06-03T14:00:16.999776,15.36504063,.00085376,51.8620,119.0772,125.0907,86.5816,0,U,69275,999,130,-.36355988E-3,-.13537E-3,0
KUIPER-00590,2026-118K,2026-06-03T14:00:16.999776,15.37561840,.00042978,51.8678,119.0384,108.3215,120.1485,0,U,69276,999,174,-.38653151E-3,-.14839E-3,0
KUIPER-00592,2026-118L,2026-06-03T14:00:16.999776,15.37776571,.00038026,51.8699,119.0276,86.8945,144.9253,0,U,69277,999,130,-.42489512E-3,-.1638E-3,0
KUIPER-00593,2026-118M,2026-06-03T14:00:16.999776,15.37851487,.00038252,51.8705,119.0254,102.5713,129.5191,0,U,69278,999,195,-.37853507E-3,-.14675E-3,0
KUIPER-00594,2026-118N,2026-06-03T14:00:16.999776,15.38496570,.00015271,51.8708,118.9989,41.9560,202.1970,0,U,69279,999,130,-.37588812E-3,-.14873E-3,0
KUIPER-00595,2026-118P,2026-06-03T14:00:16.999776,15.38417739,.00022425,51.8704,119.0100,82.0658,158.0863,0,U,69280,999,192,-.64112755E-2,-.239593E-2,0
KUIPER-00596,2026-118Q,2026-06-03T14:00:16.999776,15.35514309,.00118999,51.8548,119.1101,134.9100,61.0599,0,U,69281,999,130,-.89005388E-4,-.3516E-4,0
KUIPER-00597,2026-118R,2026-06-03T14:00:16.999776,15.37042316,.00069561,51.8641,119.0617,119.6874,99.0646,0,U,69282,999,130,-.43926598E-3,-.16541E-3,0
KUIPER-00599,2026-118S,2026-06-03T14:00:16.999776,15.37056626,.00064361,51.8683,119.0531,115.0655,105.9220,0,U,69283,999,130,-.44217755E-3,-.16653E-3,0
KUIPER-00600,2026-118T,2026-06-03T14:00:16.999776,15.36617641,.0008849,51.8633,119.0762,123.2758,88.4955,0,U,69284,999,177,-.44378425E-3,-.16493E-3,0
KUIPER-00601,2026-118U,2026-06-03T14:00:16.999776,15.37365169,.00049667,51.8695,119.0423,108.7893,116.4705,0,U,69285,999,180,-.20142603E-3,-.7881E-4,0
KUIPER-00602,2026-118V,2026-06-03T14:00:16.999776,15.37815091,.0003414,51.8692,119.0239,91.9262,142.5593,0,U,69286,999,130,-.4629222E-3,-.17829E-3,0
KUIPER-00603,2026-118W,2026-06-03T14:00:16.999776,15.37231322,.00056439,51.8662,119.0494,111.2065,112.7846,0,U,69287,999,175,-.40980722E-3,-.15548E-3,0
KUIPER-00605,2026-118X,2026-06-03T14:00:16.999776,15.36784483,.00078258,51.8654,119.0673,116.4809,99.0472,0,U,69288,999,159,-.44573222E-3,-.16645E-3,0
KUIPER-00606,2026-118Y,2026-06-03T14:00:16.999776,15.37475635,.00048336,51.8687,119.0379,103.9590,124.0040,0,U,69289,999,144,-.43282906E-3,-.16522E-3,0
KUIPER-00607,2026-118Z,2026-06-03T14:00:16.999776,15.37145731,.000647,51.8672,119.0509,109.5769,113.1170,0,U,69290,999,140,-.39791604E-3,-.15071E-3,0
