STARLINK-37506          
1 69261U 26117Z   26154.91668981 -.01716077  10024-2 -18077-2 0  9992
2 69261  53.1579 310.3818 0000483  58.4143 238.7615 16.09773061  2037
STARLINK-37503          
1 69262U 26117AA  26154.91668981 -.01690908  97894-3 -17455-2 0  9997
2 69262  53.1581 310.3734 0000396  54.5164 246.4629 16.10079311  2031
STARLINK-37502          
1 69263U 26117AB  26154.91668981 -.01605247  89274-3 -16133-2 0  9995
2 69263  53.1580 310.3666 0000374  64.4841 239.6660 16.10474094  2039
STARLINK-37486          
1 69264U 26117AC  26154.91668981 -.01575861  86722-3 -15406-2 0  9991
2 69264  53.1579 310.3578 0000337  63.9466 244.5899 16.10887018  2039
STARLINK-37435          
1 69265U 26117AD  26154.91668981 -.01554162  84846-3 -14891-2 0  9995
2 69265  53.1579 310.3489 0000277  41.2084 271.1773 16.11185624  2031
STARLINK-37464          
1 69266U 26117AE  26154.91668981 -.01518059  81629-3 -14174-2 0  9991
2 69266  53.1578 310.3407 0000346  52.4471 263.9426 16.11565983  2036
KUIPER-00282            
1 69267U 26118A   26154.58353009 -.00018343  00000+0 -51547-3 0  9994
2 69267  51.8582 119.1170 0011809 135.3199  57.2014 15.35324343  1307
KUIPER-00383            
1 69268U 26118B   26154.58353009 -.00017676  00000+0 -48946-3 0  9992
2 69268  51.8585 119.1043 0011109 132.8469  65.8049 15.35762585  1324
KUIPER-00527            
1 69269U 26118C   26154.58353009  .00002587  00000+0  83259-4 0  9993
2 69269  51.8611 119.0903 0009917 127.5834  77.7691 15.36101620  1301
KUIPER-00562            
1 69270U 26118D   26154.58353009 -.00015169  00000+0 -38590-3 0  9994
2 69270  51.8711 119.0019 0001977  71.6560 169.0492 15.38311100  1857
KUIPER-00570            
1 69271U 26118E   26154.58353009 -.00016375  00000+0 -45229-3 0  9992
2 69271  51.8571 119.1018 0010825 134.2093  65.8961 15.35783557  1446
KUIPER-00572            
1 69272U 26118F   26154.58353009 -.00015259  00000+0 -40903-3 0  9997
2 69272  51.8666 119.0695 0007319 121.6537  92.2721 15.36683629  1302
KUIPER-00581            
1 69273U 26118G   26154.58353009 -.00015176  00000+0 -41079-3 0  9991
2 69273  51.8646 119.0818 0008910 126.9297  81.7526 15.36364462  1988
KUIPER-00584            
1 69274U 26118H   26154.58353009 -.00016864  00000+0 -47282-3 0  9999
2 69274  51.8599 119.1093 0011687 136.0029  60.1593 15.35332186  1300
KUIPER-00587            
1 69275U 26118J   26154.58353009 -.00013537  00000+0 -36356-3 0  9994
2 69275  51.8620 119.0772 0008537 125.0907  86.5816 15.36504063  1308
KUIPER-00590            
1 69276U 26118K   26154.58353009 -.00014839  00000+0 -38653-3 0  9993
2 69276  51.8678 119.0384 0004297 108.3215 120.1485 15.37561840  1748
KUIPER-00592            
1 69277U 26118L   26154.58353009 -.00016380  00000+0 -42490-3 0  9991
2 69277  51.8699 119.0276 0003802  86.8945 144.9253 15.37776571  1301
KUIPER-00593            
1 69278U 26118M   26154.58353009 -.00014675  00000+0 -37854-3 0  9995
2 69278  51.8705 119.0254 0003825 102.5713 129.5191 15.37851487  1951
KUIPER-00594            
1 69279U 26118N   26154.58353009 -.00014873  00000+0 -37589-3 0  9991
2 69279  51.8708 118.9989 0001527  41.9560 202.1970 15.38496570  1302
KUIPER-00595            
1 69280U 26118P   26154.58353009 -.00239593  00000+0 -64113-2 0  9993
2 69280  51.8704 119.0100 0002242  82.0658 158.0863 15.38417739  1924
KUIPER-00596            
1 69281U 26118Q   26154.58353009 -.00003516  00000+0 -89005-4 0  9997
2 69281  51.8548 119.1101 0011899 134.9100  61.0599 15.35514309  1309
KUIPER-00597            
1 69282U 26118R   26154.58353009 -.00016541  00000+0 -43927-3 0  9992
2 69282  51.8641 119.0617 0006956 119.6874  99.0646 15.37042316  1301
KUIPER-00599            
1 69283U 26118S   26154.58353009 -.00016653  00000+0 -44218-3 0  9991
2 69283  51.8683 119.0531 0006436 115.0655 105.9220 15.37056626  1307
KUIPER-00600            
1 69284U 26118T   26154.58353009 -.00016493  00000+0 -44378-3 0  9991
2 69284  51.8633 119.0762 0008849 123.2758  88.4955 15.36617641  1774
KUIPER-00601            
1 69285U 26118U   26154.58353009 -.00007881  00000+0 -20143-3 0  9997
2 69285  51.8695 119.0423 0004966 108.7893 116.4705 15.37365169  1806
KUIPER-00602            
1 69286U 26118V   26154.58353009 -.00017829  00000+0 -46292-3 0  9994
2 69286  51.8692 119.0239 0003414  91.9262 142.5593 15.37815091  1303
KUIPER-00603            
1 69287U 26118W   26154.58353009 -.00015548  00000+0 -40981-3 0  9990
2 69287  51.8662 119.0494 0005643 111.2065 112.7846 15.37231322  1755
KUIPER-00605            
1 69288U 26118X   26154.58353009 -.00016645  00000+0 -44573-3 0  9991
2 69288  51.8654 119.0673 0007825 116.4809  99.0472 15.36784483  1597
KUIPER-00606            
1 69289U 26118Y   26154.58353009 -.00016522  00000+0 -43283-3 0  9993
2 69289  51.8687 119.0379 0004833 103.9590 124.0040 15.37475635  1442
KUIPER-00607            
1 69290U 26118Z   26154.58353009 -.00015071  00000+0 -39792-3 0  9993
2 69290  51.8672 119.0509 0006470 109.5769 113.1170 15.37145731  1402
